{
  "type": "FeatureCollection",
  "features": [
    {
      "type": "Feature",
      "properties": {
        "norad_id": 31389,
        "name": "FENGYUN 1C DEB",
        "group": "fengyun-1c-debris",
        "lat": 49.82446134420909,
        "lon": 143.49636919227666,
        "alt_km": 698.3462184507698,
        "timestamp": "2025-12-14T18:52:55.785640+00:00",
        "meta_object_name": "FENGYUN 1C DEB",
        "meta_object_id": "1999-025BSV",
        "meta_epoch": "2025-12-13T09:52:46.171200",
        "meta_mean_motion": 14.61075028,
        "meta_eccentricity": 0.00287317,
        "meta_inclination": 99.0422,
        "meta_ra_of_asc_node": 152.8666,
        "meta_arg_of_pericenter": 187.0588,
        "meta_mean_anomaly": 194.9419,
        "meta_ephemeris_type": 0,
        "meta_classification_type": "U",
        "meta_norad_cat_id": 31389,
        "meta_element_set_no": 999,
        "meta_rev_at_epoch": 96507,
        "meta_bstar": 0.0084752005,
        "meta_mean_motion_dot": 0.00042082,
        "meta_mean_motion_ddot": 0,
        "tle_line1": "1 31389U 99025BSV 25347.41164550  .00042082  00000+0  84752-2 0  9999",
        "tle_line2": "2 31389  99.0422 152.8666 0028731 187.0588 194.9419 14.61075028965072"
      },
      "geometry": {
        "type": "Point",
        "coordinates": [
          143.49636919227666,
          49.82446134420909
        ]
      }
    },
    {
      "type": "Feature",
      "properties": {
        "norad_id": 31410,
        "name": "FENGYUN 1C DEB",
        "group": "fengyun-1c-debris",
        "lat": 26.836463323983892,
        "lon": 145.90615248615615,
        "alt_km": 763.5250867585046,
        "timestamp": "2025-12-14T18:52:55.785650+00:00",
        "meta_object_name": "FENGYUN 1C DEB",
        "meta_object_id": "1999-025BSW",
        "meta_epoch": "2025-12-13T09:39:12.873312",
        "meta_mean_motion": 14.44775047,
        "meta_eccentricity": 0.01107159,
        "meta_inclination": 98.8337,
        "meta_ra_of_asc_node": 148.9799,
        "meta_arg_of_pericenter": 284.7101,
        "meta_mean_anomaly": 104.2856,
        "meta_ephemeris_type": 0,
        "meta_classification_type": "U",
        "meta_norad_cat_id": 31410,
        "meta_element_set_no": 999,
        "meta_rev_at_epoch": 97761,
        "meta_bstar": 0.001382513,
        "meta_mean_motion_dot": 5.126e-05,
        "meta_mean_motion_ddot": 0,
        "tle_line1": "1 31410U 99025BSW 25347.40223233  .00005126  00000+0  13825-2 0  9998",
        "tle_line2": "2 31410  98.8337 148.9799 0110715 284.7101 104.2856 14.44775047977613"
      },
      "geometry": {
        "type": "Point",
        "coordinates": [
          145.90615248615615,
          26.836463323983892
        ]
      }
    },
    {
      "type": "Feature",
      "properties": {
        "norad_id": 31411,
        "name": "FENGYUN 1C DEB",
        "group": "fengyun-1c-debris",
        "lat": 19.120445662645256,
        "lon": 47.01984539748005,
        "alt_km": 845.1629604060363,
        "timestamp": "2025-12-14T18:52:55.785660+00:00",
        "meta_object_name": "FENGYUN 1C DEB",
        "meta_object_id": "1999-025BSX",
        "meta_epoch": "2025-12-12T03:02:30.870816",
        "meta_mean_motion": 14.27987029,
        "meta_eccentricity": 0.01006421,
        "meta_inclination": 98.6694,
        "meta_ra_of_asc_node": 47.4115,
        "meta_arg_of_pericenter": 256.6303,
        "meta_mean_anomaly": 135.2131,
        "meta_ephemeris_type": 0,
        "meta_classification_type": "U",
        "meta_norad_cat_id": 31411,
        "meta_element_set_no": 999,
        "meta_rev_at_epoch": 94471,
        "meta_bstar": 0.00074843103,
        "meta_mean_motion_dot": 1.915e-05,
        "meta_mean_motion_ddot": 0,
        "tle_line1": "1 31411U 99025BSX 25346.12674619  .00001915  00000+0  74843-3 0  9995",
        "tle_line2": "2 31411  98.6694  47.4115 0100642 256.6303 135.2131 14.27987029944714"
      },
      "geometry": {
        "type": "Point",
        "coordinates": [
          47.01984539748005,
          19.120445662645256
        ]
      }
    },
    {
      "type": "Feature",
      "properties": {
        "norad_id": 31412,
        "name": "FENGYUN 1C DEB",
        "group": "fengyun-1c-debris",
        "lat": -43.97865298547669,
        "lon": 104.23732020573524,
        "alt_km": 881.6005525331593,
        "timestamp": "2025-12-14T18:52:55.785671+00:00",
        "meta_object_name": "FENGYUN 1C DEB",
        "meta_object_id": "1999-025BSY",
        "meta_epoch": "2025-12-08T06:48:54.722880",
        "meta_mean_motion": 14.09789295,
        "meta_eccentricity": 0.00838756,
        "meta_inclination": 98.5477,
        "meta_ra_of_asc_node": 286.4048,
        "meta_arg_of_pericenter": 347.8933,
        "meta_mean_anomaly": 12.0222,
        "meta_ephemeris_type": 0,
        "meta_classification_type": "U",
        "meta_norad_cat_id": 31412,
        "meta_element_set_no": 999,
        "meta_rev_at_epoch": 60929,
        "meta_bstar": 0.0029204148,
        "meta_mean_motion_dot": 5.263e-05,
        "meta_mean_motion_ddot": 0,
        "tle_line1": "1 31412U 99025BSY 25342.28396670  .00005263  00000+0  29204-2 0  9997",
        "tle_line2": "2 31412  98.5477 286.4048 0083875 347.8933  12.0222 14.09789295609292"
      },
      "geometry": {
        "type": "Point",
        "coordinates": [
          104.23732020573524,
          -43.97865298547669
        ]
      }
    },
    {
      "type": "Feature",
      "properties": {
        "norad_id": 31415,
        "name": "FENGYUN 1C DEB",
        "group": "fengyun-1c-debris",
        "lat": -51.628828167282556,
        "lon": 108.6583450845203,
        "alt_km": 840.6118281334375,
        "timestamp": "2025-12-14T18:52:55.785681+00:00",
        "meta_object_name": "FENGYUN 1C DEB",
        "meta_object_id": "1999-025BTB",
        "meta_epoch": "2025-12-13T03:11:46.211136",
        "meta_mean_motion": 14.30603215,
        "meta_eccentricity": 0.00640663,
        "meta_inclination": 99.639,
        "meta_ra_of_asc_node": 299.2219,
        "meta_arg_of_pericenter": 73.5516,
        "meta_mean_anomaly": 287.2691,
        "meta_ephemeris_type": 0,
        "meta_classification_type": "U",
        "meta_norad_cat_id": 31415,
        "meta_element_set_no": 999,
        "meta_rev_at_epoch": 62836,
        "meta_bstar": 0.0017399437,
        "meta_mean_motion_dot": 4.596e-05,
        "meta_mean_motion_ddot": 0,
        "tle_line1": "1 31415U 99025BTB 25347.13317374  .00004596  00000+0  17399-2 0  9993",
        "tle_line2": "2 31415  99.6390 299.2219 0064066  73.5516 287.2691 14.30603215628360"
      },
      "geometry": {
        "type": "Point",
        "coordinates": [
          108.6583450845203,
          -51.628828167282556
        ]
      }
    },
    {
      "type": "Feature",
      "properties": {
        "norad_id": 31416,
        "name": "FENGYUN 1C DEB",
        "group": "fengyun-1c-debris",
        "lat": -10.93439887781762,
        "lon": 40.900028625974464,
        "alt_km": 782.410311405918,
        "timestamp": "2025-12-14T18:52:55.785691+00:00",
        "meta_object_name": "FENGYUN 1C DEB",
        "meta_object_id": "1999-025BTC",
        "meta_epoch": "2025-12-13T21:15:53.800704",
        "meta_mean_motion": 14.40675762,
        "meta_eccentricity": 0.01329181,
        "meta_inclination": 99.0508,
        "meta_ra_of_asc_node": 38.1827,
        "meta_arg_of_pericenter": 247.6022,
        "meta_mean_anomaly": 111.1038,
        "meta_ephemeris_type": 0,
        "meta_classification_type": "U",
        "meta_norad_cat_id": 31416,
        "meta_element_set_no": 999,
        "meta_rev_at_epoch": 65536,
        "meta_bstar": 0.00041100406,
        "meta_mean_motion_dot": 1.402e-05,
        "meta_mean_motion_ddot": 0,
        "tle_line1": "1 31416U 99025BTC 25347.88603936  .00001402  00000+0  41100-3 0  9999",
        "tle_line2": "2 31416  99.0508  38.1827 0132918 247.6022 111.1038 14.40675762655366"
      },
      "geometry": {
        "type": "Point",
        "coordinates": [
          40.900028625974464,
          -10.93439887781762
        ]
      }
    },
    {
      "type": "Feature",
      "properties": {
        "norad_id": 31420,
        "name": "FENGYUN 1C DEB",
        "group": "fengyun-1c-debris",
        "lat": -11.682577067276807,
        "lon": 64.92543085941882,
        "alt_km": 821.8663442611987,
        "timestamp": "2025-12-14T18:52:55.785717+00:00",
        "meta_object_name": "FENGYUN 1C DEB",
        "meta_object_id": "1999-025BTG",
        "meta_epoch": "2025-12-12T16:07:19.593120",
        "meta_mean_motion": 14.4081029,
        "meta_eccentricity": 0.01357889,
        "meta_inclination": 97.5578,
        "meta_ra_of_asc_node": 244.6278,
        "meta_arg_of_pericenter": 328.3513,
        "meta_mean_anomaly": 60.6144,
        "meta_ephemeris_type": 0,
        "meta_classification_type": "U",
        "meta_norad_cat_id": 31420,
        "meta_element_set_no": 999,
        "meta_rev_at_epoch": 64993,
        "meta_bstar": 0.0010850472,
        "meta_mean_motion_dot": 3.836e-05,
        "meta_mean_motion_ddot": 0,
        "tle_line1": "1 31420U 99025BTG 25346.67175455  .00003836  00000+0  10850-2 0  9990",
        "tle_line2": "2 31420  97.5578 244.6278 0135788 328.3513  60.6144 14.40810290649934"
      },
      "geometry": {
        "type": "Point",
        "coordinates": [
          64.92543085941882,
          -11.682577067276807
        ]
      }
    }
  ]
}